[
    {
        "Altitude(m)": 706560.3274200256,
        "Argument of Periapsis(deg)": 0.004556048474650827,
        "Eccentricity": 0.0,
        "Inclination(deg)": 45.0,
        "Latitude(deg)": 41.81105843310794,
        "Longitude(deg)": -2.4625076240082926,
        "Mean Anomaly(deg)": 70.06778665899232,
        "RAAN(deg)": 34.995699223416715,
        "Satellite Name": "Constellation 1 158",
        "Satellite Number": 158,
        "Semi-Major Axis(m)": 7083131.272910544,
        "Time(s)": 76
    },
    {
        "Altitude(m)": 706564.6400327274,
        "Argument of Periapsis(deg)": 0.004615996480896233,
        "Eccentricity": 0.0,
        "Inclination(deg)": 45.0,
        "Latitude(deg)": 41.83068556563956,
        "Longitude(deg)": -2.389666936646002,
        "Mean Anomaly(deg)": 70.12848779924222,
        "RAAN(deg)": 34.99564263425115,
        "Satellite Name": "Constellation 1 158",
        "Satellite Number": 158,
        "Semi-Major Axis(m)": 7083131.272910544,
        "Time(s)": 77
    },
    {
        "Altitude(m)": 706568.9423951464,
        "Argument of Periapsis(deg)": 0.004675944487141638,
        "Eccentricity": 0.0,
        "Inclination(deg)": 45.0,
        "Latitude(deg)": 41.85026106937441,
        "Longitude(deg)": -2.316779319243042,
        "Mean Anomaly(deg)": 70.18918893949213,
        "RAAN(deg)": 34.99558604508558,
        "Satellite Name": "Constellation 1 158",
        "Satellite Number": 158,
        "Semi-Major Axis(m)": 7083131.272910544,
        "Time(s)": 78
    },
    {
        "Altitude(m)": 706573.2344816031,
        "Argument of Periapsis(deg)": 0.004735892493387044,
        "Eccentricity": 0.0,
        "Inclination(deg)": 45.0,
        "Latitude(deg)": 41.869784878039845,
        "Longitude(deg)": -2.2438448346504023,
        "Mean Anomaly(deg)": 70.249890079742,
        "RAAN(deg)": 34.99552945592001,
        "Satellite Name": "Constellation 1 158",
        "Satellite Number": 158,
        "Semi-Major Axis(m)": 7083131.272910544,
        "Time(s)": 79
    },
    {
        "Altitude(m)": 706577.5162664794,
        "Argument of Periapsis(deg)": 0.004795840499632449,
        "Eccentricity": 0.0,
        "Inclination(deg)": 45.0,
        "Latitude(deg)": 41.889256925434125,
        "Longitude(deg)": -2.1708635462642465,
        "Mean Anomaly(deg)": 70.31059121999192,
        "RAAN(deg)": 34.99547286675444,
        "Satellite Name": "Constellation 1 158",
        "Satellite Number": 158,
        "Semi-Major Axis(m)": 7083131.272910544,
        "Time(s)": 80
    },
    {
        "Altitude(m)": 706581.7877242239,
        "Argument of Periapsis(deg)": 0.004855788505877855,
        "Eccentricity": 0.0,
        "Inclination(deg)": 45.0,
        "Latitude(deg)": 41.90867714542725,
        "Longitude(deg)": -2.097835518026266,
        "Mean Anomaly(deg)": 70.37129236024182,
        "RAAN(deg)": 34.995416277588866,
        "Satellite Name": "Constellation 1 158",
        "Satellite Number": 158,
        "Semi-Major Axis(m)": 7083131.272910544,
        "Time(s)": 81
    },
    {
        "Altitude(m)": 706586.0488293566,
        "Argument of Periapsis(deg)": 0.00491573651212326,
        "Eccentricity": 0.0,
        "Inclination(deg)": 45.0,
        "Latitude(deg)": 41.928045471961475,
        "Longitude(deg)": -2.0247609825216224,
        "Mean Anomaly(deg)": 70.43199350049171,
        "RAAN(deg)": 34.9953596884233,
        "Satellite Name": "Constellation 1 158",
        "Satellite Number": 158,
        "Semi-Major Axis(m)": 7083131.272910544,
        "Time(s)": 82
    },
    {
        "Altitude(m)": 706590.2995564503,
        "Argument of Periapsis(deg)": 0.004975684518368666,
        "Eccentricity": 0.0,
        "Inclination(deg)": 45.0,
        "Latitude(deg)": 41.9473618390534,
        "Longitude(deg)": -1.951639668591658,
        "Mean Anomaly(deg)": 70.49269464074162,
        "RAAN(deg)": 34.995303099257725,
        "Satellite Name": "Constellation 1 158",
        "Satellite Number": 158,
        "Semi-Major Axis(m)": 7083131.272910544,
        "Time(s)": 83
    },
    {
        "Altitude(m)": 706594.5398801597,
        "Argument of Periapsis(deg)": 0.005035632524614072,
        "Eccentricity": 0.0,
        "Inclination(deg)": 45.0,
        "Latitude(deg)": 41.96662618079291,
        "Longitude(deg)": -1.8784718099162634,
        "Mean Anomaly(deg)": 70.55339578099152,
        "RAAN(deg)": 34.99524651009216,
        "Satellite Name": "Constellation 1 158",
        "Satellite Number": 158,
        "Semi-Major Axis(m)": 7083131.272910544,
        "Time(s)": 84
    },
    {
        "Altitude(m)": 706598.7697751949,
        "Argument of Periapsis(deg)": 0.0050955805308594785,
        "Eccentricity": 0.0,
        "Inclination(deg)": 45.0,
        "Latitude(deg)": 41.98583843134534,
        "Longitude(deg)": -1.8052574726269657,
        "Mean Anomaly(deg)": 70.61409692124143,
        "RAAN(deg)": 34.99518992092659,
        "Satellite Name": "Constellation 1 158",
        "Satellite Number": 158,
        "Semi-Major Axis(m)": 7083131.272910544,
        "Time(s)": 85
    },
    {
        "Altitude(m)": 706602.9892163284,
        "Argument of Periapsis(deg)": 0.005155528537104883,
        "Eccentricity": 0.0,
        "Inclination(deg)": 45.0,
        "Latitude(deg)": 42.00499852495195,
        "Longitude(deg)": -1.7319967234041749,
        "Mean Anomaly(deg)": 70.67479806149132,
        "RAAN(deg)": 34.99513333176102,
        "Satellite Name": "Constellation 1 158",
        "Satellite Number": 158,
        "Semi-Major Axis(m)": 7083131.272910544,
        "Time(s)": 86
    },
    {
        "Altitude(m)": 706607.1981784136,
        "Argument of Periapsis(deg)": 0.0052154765433502885,
        "Eccentricity": 0.0,
        "Inclination(deg)": 45.0,
        "Latitude(deg)": 42.024106395930836,
        "Longitude(deg)": -1.658689629478076,
        "Mean Anomaly(deg)": 70.73549920174122,
        "RAAN(deg)": 34.99507674259545,
        "Satellite Name": "Constellation 1 158",
        "Satellite Number": 158,
        "Semi-Major Axis(m)": 7083131.272910544,
        "Time(s)": 87
    },
    {
        "Altitude(m)": 706611.396636349,
        "Argument of Periapsis(deg)": 0.005275424549595694,
        "Eccentricity": 0.0,
        "Inclination(deg)": 45.0,
        "Latitude(deg)": 42.04316197867767,
        "Longitude(deg)": -1.585336258629194,
        "Mean Anomaly(deg)": 70.79620034199111,
        "RAAN(deg)": 34.995020153429884,
        "Satellite Name": "Constellation 1 158",
        "Satellite Number": 158,
        "Semi-Major Axis(m)": 7083131.272910544,
        "Time(s)": 88
    },
    {
        "Altitude(m)": 706615.5845651207,
        "Argument of Periapsis(deg)": 0.0053353725558411,
        "Eccentricity": 0.0,
        "Inclination(deg)": 45.0,
        "Latitude(deg)": 42.06216520766634,
        "Longitude(deg)": -1.51193684728598,
        "Mean Anomaly(deg)": 70.85690148224101,
        "RAAN(deg)": 34.99496356426431,
        "Satellite Name": "Constellation 1 158",
        "Satellite Number": 158,
        "Semi-Major Axis(m)": 7083131.272910544,
        "Time(s)": 89
    },
    {
        "Altitude(m)": 706619.7619397675,
        "Argument of Periapsis(deg)": 0.005395320562086505,
        "Eccentricity": 0.0,
        "Inclination(deg)": 45.0,
        "Latitude(deg)": 42.08111601745105,
        "Longitude(deg)": -1.438491128137336,
        "Mean Anomaly(deg)": 70.91760262249092,
        "RAAN(deg)": 34.99490697509874,
        "Satellite Name": "Constellation 1 158",
        "Satellite Number": 158,
        "Semi-Major Axis(m)": 7083131.272910544,
        "Time(s)": 90
    },
    {
        "Altitude(m)": 706623.9287354014,
        "Argument of Periapsis(deg)": 0.00545526856833191,
        "Eccentricity": 0.0,
        "Inclination(deg)": 45.0,
        "Latitude(deg)": 42.100014342665226,
        "Longitude(deg)": -1.3649993387153918,
        "Mean Anomaly(deg)": 70.9783037627408,
        "RAAN(deg)": 34.99485038593317,
        "Satellite Name": "Constellation 1 158",
        "Satellite Number": 158,
        "Semi-Major Axis(m)": 7083131.272910544,
        "Time(s)": 91
    },
    {
        "Altitude(m)": 706628.0849271943,
        "Argument of Periapsis(deg)": 0.005515216574577317,
        "Eccentricity": 0.0,
        "Inclination(deg)": 45.0,
        "Latitude(deg)": 42.11886011802371,
        "Longitude(deg)": -1.2914615490079477,
        "Mean Anomaly(deg)": 71.03900490299071,
        "RAAN(deg)": 34.9947937967676,
        "Satellite Name": "Constellation 1 158",
        "Satellite Number": 158,
        "Semi-Major Axis(m)": 7083131.272910544,
        "Time(s)": 92
    },
    {
        "Altitude(m)": 706632.2304903916,
        "Argument of Periapsis(deg)": 0.005575164580822722,
        "Eccentricity": 0.0,
        "Inclination(deg)": 45.0,
        "Latitude(deg)": 42.137653278323235,
        "Longitude(deg)": -1.2178778295561188,
        "Mean Anomaly(deg)": 71.09970604324062,
        "RAAN(deg)": 34.99473720760203,
        "Satellite Name": "Constellation 1 158",
        "Satellite Number": 158,
        "Semi-Major Axis(m)": 7083131.272910544,
        "Time(s)": 93
    },
    {
        "Altitude(m)": 706636.365400303,
        "Argument of Periapsis(deg)": 0.005635112587068129,
        "Eccentricity": 0.0,
        "Inclination(deg)": 45.0,
        "Latitude(deg)": 42.156393758443365,
        "Longitude(deg)": -1.1442482514548291,
        "Mean Anomaly(deg)": 71.1604071834905,
        "RAAN(deg)": 34.99468061843647,
        "Satellite Name": "Constellation 1 158",
        "Satellite Number": 158,
        "Semi-Major Axis(m)": 7083131.272910544,
        "Time(s)": 94
    }
]